start=new Date('2022-07-09T00:00:00.000Z').valueOf();
sats=[{"MEAN_ELEMENT_THEORY":"SGP4","BSTAR":"-0.00034412000000","OBJECT_ID":"2022-062W","TLE_LINE1":"1 52850U 22062W   22189.91668981 -.00048806  00000-0 -34412-3 0  9997","SITE":"AFETR","MEAN_MOTION":"15.73280303","APOAPSIS":"350.830","OBJECT_NAME":"STARLINK-4187","LAUNCH_DATE":"2022-06-17","ARG_OF_PERICENTER":"24.6657","COUNTRY_CODE":"US","TIME_SYSTEM":"UTC","SEMIMAJOR_AXIS":"6727.666","RCS_SIZE":"LARGE","NORAD_CAT_ID":"52850","REV_AT_EPOCH":"130","MEAN_MOTION_DDOT":"0.0000000000000","ECCENTRICITY":"0.00019310","INCLINATION":"53.2151","OBJECT_TYPE":"PAYLOAD","TLE_LINE2":"2 52850  53.2151 299.0034 0001931  24.6657 130.6289 15.73280303  1305","REF_FRAME":"TEME","DECAY_DATE":null,"CENTER_NAME":"EARTH","PERIAPSIS":"348.232","CLASSIFICATION_TYPE":"U","RA_OF_ASC_NODE":"299.0034","MEAN_MOTION_DOT":"-0.00048806","GP_ID":"207697619","EPOCH":"2022-07-08T22:00:01.999584","PERIOD":"91.529","EPHEMERIS_TYPE":"0","FILE":"3510087","ELEMENT_SET_NO":"999","MEAN_ANOMALY":"130.6289"},{"INCLINATION":"53.2148","MEAN_MOTION_DDOT":"0.0000000000000","ECCENTRICITY":"0.00020520","TLE_LINE2":"2 52851  53.2148 298.9979 0002052  25.1112 132.5540 15.73325118  1300","OBJECT_TYPE":"PAYLOAD","REF_FRAME":"TEME","CENTER_NAME":"EARTH","PERIAPSIS":"348.023","DECAY_DATE":null,"EPOCH":"2022-07-08T22:00:01.999584","RA_OF_ASC_NODE":"298.9979","CLASSIFICATION_TYPE":"U","GP_ID":"207698184","MEAN_MOTION_DOT":"-0.00064110","EPHEMERIS_TYPE":"0","PERIOD":"91.526","FILE":"3510087","MEAN_ANOMALY":"132.5540","ELEMENT_SET_NO":"999","BSTAR":"-0.00045335000000","MEAN_ELEMENT_THEORY":"SGP4","SITE":"AFETR","TLE_LINE1":"1 52851U 22062X   22189.91668981 -.00064110  00000-0 -45335-3 0  9990","OBJECT_ID":"2022-062X","APOAPSIS":"350.784","MEAN_MOTION":"15.73325118","OBJECT_NAME":"STARLINK-3809","COUNTRY_CODE":"US","LAUNCH_DATE":"2022-06-17","ARG_OF_PERICENTER":"25.1112","TIME_SYSTEM":"UTC","SEMIMAJOR_AXIS":"6727.538","REV_AT_EPOCH":"130","NORAD_CAT_ID":"52851","RCS_SIZE":"LARGE"},{"REF_FRAME":"TEME","DECAY_DATE":null,"CENTER_NAME":"EARTH","PERIAPSIS":"348.082","MEAN_MOTION_DDOT":"0.0000000000000","ECCENTRICITY":"0.00019940","INCLINATION":"53.2149","OBJECT_TYPE":"PAYLOAD","TLE_LINE2":"2 52852  53.2149 299.0004 0001994  28.3840 128.0616 15.73318067  1309","FILE":"3510087","MEAN_ANOMALY":"128.0616","ELEMENT_SET_NO":"999","RA_OF_ASC_NODE":"299.0004","CLASSIFICATION_TYPE":"U","GP_ID":"207697720","MEAN_MOTION_DOT":"-0.00087831","EPOCH":"2022-07-08T22:00:01.999584","PERIOD":"91.526","EPHEMERIS_TYPE":"0","MEAN_MOTION":"15.73318067","APOAPSIS":"350.765","OBJECT_NAME":"STARLINK-4184","MEAN_ELEMENT_THEORY":"SGP4","BSTAR":"-0.00062468000000","TLE_LINE1":"1 52852U 22062Y   22189.91668981 -.00087831  00000-0 -62468-3 0  9992","OBJECT_ID":"2022-062Y","SITE":"AFETR","TIME_SYSTEM":"UTC","SEMIMAJOR_AXIS":"6727.559","NORAD_CAT_ID":"52852","RCS_SIZE":"LARGE","REV_AT_EPOCH":"130","LAUNCH_DATE":"2022-06-17","ARG_OF_PERICENTER":"28.3840","COUNTRY_CODE":"US"},{"FILE":"3510087","ELEMENT_SET_NO":"999","MEAN_ANOMALY":"128.9789","EPOCH":"2022-07-08T22:00:01.999584","RA_OF_ASC_NODE":"298.9975","CLASSIFICATION_TYPE":"U","GP_ID":"207698286","MEAN_MOTION_DOT":"-0.00069772","EPHEMERIS_TYPE":"0","PERIOD":"91.525","REF_FRAME":"TEME","CENTER_NAME":"EARTH","PERIAPSIS":"348.010","DECAY_DATE":null,"INCLINATION":"53.2153","MEAN_MOTION_DDOT":"0.0000000000000","ECCENTRICITY":"0.00020290","TLE_LINE2":"2 52853  53.2153 298.9975 0002029  29.8633 128.9789 15.73335274  1305","OBJECT_TYPE":"PAYLOAD","TIME_SYSTEM":"UTC","SEMIMAJOR_AXIS":"6727.510","REV_AT_EPOCH":"130","RCS_SIZE":"LARGE","NORAD_CAT_ID":"52853","COUNTRY_CODE":"US","LAUNCH_DATE":"2022-06-17","ARG_OF_PERICENTER":"29.8633","APOAPSIS":"350.740","MEAN_MOTION":"15.73335274","OBJECT_NAME":"STARLINK-4189","BSTAR":"-0.00049390000000","MEAN_ELEMENT_THEORY":"SGP4","SITE":"AFETR","TLE_LINE1":"1 52853U 22062Z   22189.91668981 -.00069772  00000-0 -49390-3 0  9996","OBJECT_ID":"2022-062Z"},{"SEMIMAJOR_AXIS":"6728.333","TIME_SYSTEM":"UTC","REV_AT_EPOCH":"130","RCS_SIZE":"LARGE","NORAD_CAT_ID":"52854","COUNTRY_CODE":"US","LAUNCH_DATE":"2022-06-17","ARG_OF_PERICENTER":"37.0676","APOAPSIS":"351.327","MEAN_MOTION":"15.73046537","OBJECT_NAME":"STARLINK-4204","BSTAR":"0.00177250000000","MEAN_ELEMENT_THEORY":"SGP4","SITE":"AFETR","TLE_LINE1":"1 52854U 22062AA  22189.91668981  .00254138  00000-0  17725-2 0  9993","OBJECT_ID":"2022-062AA","FILE":"3510087","ELEMENT_SET_NO":"999","MEAN_ANOMALY":"120.9890","EPOCH":"2022-07-08T22:00:01.999584","CLASSIFICATION_TYPE":"U","RA_OF_ASC_NODE":"298.9974","GP_ID":"207697983","MEAN_MOTION_DOT":"0.00254138","EPHEMERIS_TYPE":"0","PERIOD":"91.542","REF_FRAME":"TEME","CENTER_NAME":"EARTH","PERIAPSIS":"349.068","DECAY_DATE":null,"INCLINATION":"53.2169","MEAN_MOTION_DDOT":"0.0000000000000","ECCENTRICITY":"0.00016790","TLE_LINE2":"2 52854  53.2169 298.9974 0001679  37.0676 120.9890 15.73046537  1306","OBJECT_TYPE":"PAYLOAD"},{"DECAY_DATE":null,"CENTER_NAME":"EARTH","PERIAPSIS":"348.156","REF_FRAME":"TEME","OBJECT_TYPE":"PAYLOAD","TLE_LINE2":"2 52855  53.2154 298.9944 0001972  32.0362 128.5981 15.73297215  1307","MEAN_MOTION_DDOT":"0.0000000000000","ECCENTRICITY":"0.00019720","INCLINATION":"53.2154","ELEMENT_SET_NO":"999","MEAN_ANOMALY":"128.5981","FILE":"3510087","PERIOD":"91.528","EPHEMERIS_TYPE":"0","RA_OF_ASC_NODE":"298.9944","CLASSIFICATION_TYPE":"U","MEAN_MOTION_DOT":"-0.00089603","GP_ID":"207697822","EPOCH":"2022-07-08T22:00:01.999584","OBJECT_NAME":"STARLINK-4209","MEAN_MOTION":"15.73297215","APOAPSIS":"350.810","TLE_LINE1":"1 52855U 22062AB  22189.91668981 -.00089603  00000-0 -63808-3 0  9993","OBJECT_ID":"2022-062AB","SITE":"AFETR","MEAN_ELEMENT_THEORY":"SGP4","BSTAR":"-0.00063808000000","NORAD_CAT_ID":"52855","RCS_SIZE":"MEDIUM","REV_AT_EPOCH":"130","TIME_SYSTEM":"UTC","SEMIMAJOR_AXIS":"6727.618","LAUNCH_DATE":"2022-06-17","ARG_OF_PERICENTER":"32.0362","COUNTRY_CODE":"US"},{"REF_FRAME":"TEME","DECAY_DATE":null,"CENTER_NAME":"EARTH","PERIAPSIS":"348.313","MEAN_MOTION_DDOT":"0.0000000000000","ECCENTRICITY":"0.00019910","INCLINATION":"53.2152","OBJECT_TYPE":"PAYLOAD","TLE_LINE2":"2 52856  53.2152 298.9943 0001991  30.0255 129.2889 15.73237933  1301","FILE":"3510087","ELEMENT_SET_NO":"999","MEAN_ANOMALY":"129.2889","CLASSIFICATION_TYPE":"U","RA_OF_ASC_NODE":"298.9943","GP_ID":"207698084","MEAN_MOTION_DOT":"-0.00072455","EPOCH":"2022-07-08T22:00:01.999584","PERIOD":"91.531","EPHEMERIS_TYPE":"0","MEAN_MOTION":"15.73237933","APOAPSIS":"350.992","OBJECT_NAME":"STARLINK-4201","MEAN_ELEMENT_THEORY":"SGP4","BSTAR":"-0.00051538000000","OBJECT_ID":"2022-062AC","TLE_LINE1":"1 52856U 22062AC  22189.91668981 -.00072455  00000-0 -51538-3 0  9998","SITE":"AFETR","TIME_SYSTEM":"UTC","SEMIMAJOR_AXIS":"6727.787","RCS_SIZE":"LARGE","NORAD_CAT_ID":"52856","REV_AT_EPOCH":"130","LAUNCH_DATE":"2022-06-17","ARG_OF_PERICENTER":"30.0255","COUNTRY_CODE":"US"},{"LAUNCH_DATE":"2022-06-17","ARG_OF_PERICENTER":"26.8233","COUNTRY_CODE":"US","RCS_SIZE":"LARGE","NORAD_CAT_ID":"52857","REV_AT_EPOCH":"130","SEMIMAJOR_AXIS":"6727.636","TIME_SYSTEM":"UTC","OBJECT_ID":"2022-062AD","TLE_LINE1":"1 52857U 22062AD  22189.91668981 -.00084020  00000-0 -59781-3 0  9998","SITE":"AFETR","MEAN_ELEMENT_THEORY":"SGP4","BSTAR":"-0.00059781000000","OBJECT_NAME":"STARLINK-4199","MEAN_MOTION":"15.73290926","APOAPSIS":"350.853","PERIOD":"91.528","EPHEMERIS_TYPE":"0","RA_OF_ASC_NODE":"298.9907","CLASSIFICATION_TYPE":"U","MEAN_MOTION_DOT":"-0.00084020","GP_ID":"207698326","EPOCH":"2022-07-08T22:00:01.999584","ELEMENT_SET_NO":"999","MEAN_ANOMALY":"135.0213","FILE":"3510087","OBJECT_TYPE":"PAYLOAD","TLE_LINE2":"2 52857  53.2149 298.9907 0002010  26.8233 135.0213 15.73290926  1307","MEAN_MOTION_DDOT":"0.0000000000000","ECCENTRICITY":"0.00020100","INCLINATION":"53.2149","DECAY_DATE":null,"CENTER_NAME":"EARTH","PERIAPSIS":"348.149","REF_FRAME":"TEME"},{"ELEMENT_SET_NO":"999","MEAN_ANOMALY":"130.2203","FILE":"3510087","EPHEMERIS_TYPE":"0","PERIOD":"91.525","EPOCH":"2022-07-08T22:00:01.999584","RA_OF_ASC_NODE":"298.9933","CLASSIFICATION_TYPE":"U","GP_ID":"207697620","MEAN_MOTION_DOT":"-0.00088322","CENTER_NAME":"EARTH","PERIAPSIS":"348.158","DECAY_DATE":null,"REF_FRAME":"TEME","TLE_LINE2":"2 52858  53.2149 298.9933 0001768  29.8539 130.2203 15.73344652  1300","OBJECT_TYPE":"PAYLOAD","INCLINATION":"53.2149","MEAN_MOTION_DDOT":"0.0000000000000","ECCENTRICITY":"0.00017680","REV_AT_EPOCH":"130","NORAD_CAT_ID":"52858","RCS_SIZE":"MEDIUM","SEMIMAJOR_AXIS":"6727.483","TIME_SYSTEM":"UTC","COUNTRY_CODE":"US","LAUNCH_DATE":"2022-06-17","ARG_OF_PERICENTER":"29.8539","OBJECT_NAME":"STARLINK-4198","APOAPSIS":"350.537","MEAN_MOTION":"15.73344652","SITE":"AFETR","OBJECT_ID":"2022-062AE","TLE_LINE1":"1 52858U 22062AE  22189.91668981 -.00088322  00000-0 -62754-3 0  9992","BSTAR":"-0.00062754000000","MEAN_ELEMENT_THEORY":"SGP4"},{"MEAN_ELEMENT_THEORY":"SGP4","BSTAR":"-0.00073823000000","TLE_LINE1":"1 52859U 22062AF  22189.91668981 -.00103615  00000-0 -73823-3 0  9995","OBJECT_ID":"2022-062AF","SITE":"AFETR","MEAN_MOTION":"15.73345828","APOAPSIS":"350.719","OBJECT_NAME":"STARLINK-4196","ARG_OF_PERICENTER":"24.7560","LAUNCH_DATE":"2022-06-17","COUNTRY_CODE":"US","TIME_SYSTEM":"UTC","SEMIMAJOR_AXIS":"6727.479","RCS_SIZE":"MEDIUM","NORAD_CAT_ID":"52859","REV_AT_EPOCH":"130","ECCENTRICITY":"0.00020430","MEAN_MOTION_DDOT":"0.0000000000000","INCLINATION":"53.2153","OBJECT_TYPE":"PAYLOAD","TLE_LINE2":"2 52859  53.2153 298.9910 0002043  24.7560 137.6982 15.73345828  1307","REF_FRAME":"TEME","DECAY_DATE":null,"PERIAPSIS":"347.970","CENTER_NAME":"EARTH","GP_ID":"207698185","MEAN_MOTION_DOT":"-0.00103615","CLASSIFICATION_TYPE":"U","RA_OF_ASC_NODE":"298.9910","EPOCH":"2022-07-08T22:00:01.999584","PERIOD":"91.525","EPHEMERIS_TYPE":"0","FILE":"3510087","ELEMENT_SET_NO":"999","MEAN_ANOMALY":"137.6982"}];
